TEVEL2-7                
1 63238U 25052AE  26068.66113295  .00019244  00000+0  69668-3 0  9998
2 63238  97.4054 324.3041 0008105 124.6830 235.5175 15.28414096 54803
STARLINK-34084          
1 63970U 25099U   26068.31320459  .00042448  00000+0  15427-2 0  9991
2 63970  42.9963 177.9147 0000559 254.2506 105.8284 15.27590814 47280
